OBJECT_NAME,OBJECT_ID,EPOCH,MEAN_MOTION,ECCENTRICITY,INCLINATION,RA_OF_ASC_NODE,ARG_OF_PERICENTER,MEAN_ANOMALY,EPHEMERIS_TYPE,CLASSIFICATION_TYPE,NORAD_CAT_ID,ELEMENT_SET_NO,REV_AT_EPOCH,BSTAR,MEAN_MOTION_DOT,MEAN_MOTION_DDOT
IRIDIUM 138,2017-083B,2026-07-20T19:19:43.099680,14.34217318,.0002055,86.4000,307.6640,95.5194,264.6236,0,U,43071,999,44895,.22876E-4,.84E-6,0
IRIDIUM 116,2017-083C,2026-07-20T18:34:03.265824,14.34217170,.0002503,86.3986,307.9622,97.3299,262.8182,0,U,43072,999,44898,.38565E-4,.128E-5,0
IRIDIUM 130,2017-083D,2026-07-20T19:28:51.210048,14.34218851,.0002296,86.3994,308.2250,100.2882,259.8572,0,U,43073,999,44893,.10981E-3,.327E-5,0
IRIDIUM 151,2017-083E,2026-07-20T18:52:19.206624,14.34217841,.0002268,86.3988,308.0154,95.1496,264.9958,0,U,43074,999,44895,.18788E-4,.72E-6,0
IRIDIUM 134,2017-083F,2026-07-20T18:06:39.181824,14.34217811,.0002238,86.3988,308.0373,96.1396,264.0054,0,U,43075,999,44891,.43473E-5,.32E-6,0
IRIDIUM 137,2017-083G,2026-07-20T20:05:23.262720,14.34217581,.0002534,86.3988,308.0963,90.4594,269.6892,0,U,43076,999,44899,-.66193E-5,.1E-7,0
IRIDIUM 141,2017-083H,2026-07-20T19:56:15.229248,14.34217364,.0002149,86.3985,307.9276,94.1902,265.9540,0,U,43077,999,44899,.95223E-5,.46E-6,0
IRIDIUM 153,2017-083J,2026-07-20T17:06:55.391904,14.34217524,.0002021,86.3954,276.4546,95.9074,264.2352,0,U,43078,999,45008,-.53061E-5,.5E-7,0
IRIDIUM 131,2017-083K,2026-07-20T19:37:59.196000,14.34217427,.0002094,86.3988,308.1211,93.4758,266.6678,0,U,43079,999,44892,-.12471E-4,-.15E-6,0
IRIDIUM 144,2018-030A,2026-07-20T17:16:03.440064,14.34217383,.0002388,86.3954,276.3807,96.2416,263.9052,0,U,43249,999,43494,.14916E-4,.62E-6,0
IRIDIUM 149,2018-030B,2026-07-20T17:25:11.442432,14.34217365,.0002134,86.3951,276.3444,93.9030,266.2410,0,U,43250,999,43496,-.12318E-4,-.15E-6,0
IRIDIUM 157,2018-030C,2026-07-20T17:52:35.446944,14.34217951,.0002236,86.3951,276.3904,94.5633,265.5818,0,U,43251,999,43494,.31563E-4,.108E-5,0
IRIDIUM 140,2018-030D,2026-07-20T18:19:59.418624,14.34219048,.0002269,86.3952,276.3950,95.6036,264.5418,0,U,43252,999,43500,.42419E-4,.139E-5,0
IRIDIUM 145,2018-030E,2026-07-20T18:01:43.519296,14.34217338,.0002586,86.3952,276.3724,97.3671,262.7819,0,U,43253,999,43493,.37601E-7,.2E-6,0
IRIDIUM 146,2018-030F,2026-07-20T17:34:19.501824,14.34217280,.0002271,86.3953,276.3925,95.7261,264.4193,0,U,43254,999,43494,-.40167E-5,.9E-7,0
IRIDIUM 148,2018-030G,2026-07-20T16:48:39.483936,14.34217972,.0002307,86.3954,276.4498,94.7759,265.3701,0,U,43255,999,43497,.37909E-4,.126E-5,0
IRIDIUM 142,2018-030H,2026-07-20T17:43:27.505920,14.34217147,.0002321,86.3951,276.3213,96.5837,263.5623,0,U,43256,999,43494,-.53596E-5,.5E-7,0
IRIDIUM 150,2018-030J,2026-07-20T16:57:47.469024,14.34217101,.0002323,86.3953,276.4522,95.8609,264.2852,0,U,43257,999,43496,-.23741E-5,.13E-6,0
IRIDIUM 143,2018-030K,2026-07-20T18:10:51.466368,14.34217885,.0002331,86.3955,276.5247,95.7340,264.4121,0,U,43258,999,43490,.20145E-4,.76E-6,0
IRIDIUM 161,2018-047C,2026-07-20T17:24:10.906272,14.43277404,.0002163,86.4456,74.4444,80.7439,279.4006,0,U,43478,999,42997,.41848E-4,.161E-5,0
IRIDIUM 152,2018-047D,2026-07-20T17:31:34.236768,14.34217385,.0001961,86.3927,74.3032,84.0371,276.1048,0,U,43479,999,42729,-.28595E-4,-.6E-6,0
IRIDIUM 147,2018-047E,2026-07-20T21:01:38.235936,14.34218010,.0002297,86.3932,74.2482,87.5600,272.5859,0,U,43480,999,42731,.21311E-4,.79E-6,0
IRIDIUM 110,2018-047F,2026-07-20T21:10:46.094016,14.34217536,.0002019,86.3936,74.3385,78.2279,281.9143,0,U,43481,999,42730,.67402E-4,.209E-5,0
IRIDIUM 162,2018-047G,2026-07-20T17:15:06.130944,14.43280193,.0002186,86.4454,74.3375,86.6507,273.4944,0,U,43482,999,42996,.42598E-4,.163E-5,0
IRIDIUM 160,2018-061A,2026-07-20T01:27:38.431008,14.34217872,.00022091,86.3939,43.0457,86.9719,273.1729,0,U,43569,999,41808,.26041396E-4,.93E-6,0
IRIDIUM 166,2018-061B,2026-07-20T12:06:58.487040,14.34217653,.00022907,86.3937,42.8099,89.4560,270.6899,0,U,43570,999,41817,-.2728516E-5,.12E-6,0
IRIDIUM 158,2018-061C,2026-07-20T06:19:54.488640,14.34217825,.00021134,86.3937,42.9206,89.0737,271.0701,0,U,43571,999,41810,.44748091E-4,.145E-5,0
IRIDIUM 165,2018-061D,2026-07-20T06:56:26.506752,14.34217576,.00022444,86.3944,42.9569,91.1334,269.0119,0,U,43572,999,41813,.31762171E-4,.109E-5,0
IRIDIUM 155,2018-061E,2026-07-20T19:25:22.439136,14.34217882,.0002156,86.3936,42.6068,90.6460,269.4983,0,U,43573,999,41817,.11408E-4,.52E-6,0
IRIDIUM 154,2018-061F,2026-07-20T12:16:06.520512,14.34217319,.00021992,86.3935,42.8670,88.8576,271.2872,0,U,43574,999,41818,-.939271E-6,.17E-6,0
IRIDIUM 163,2018-061G,2026-07-20T01:45:54.496224,14.34217883,.00021235,86.3935,42.9641,87.7459,272.3980,0,U,43575,999,41809,.19263388E-4,.74E-6,0
